{"fetched_at":"2026-03-29T16:36:15Z","count":15609,"tles":[{"name":"STARLINK-33665","line1":"1 63281U 25053S   26087.81073040  .00025316  00000+0  92546-3 0  9996","line2":"2 63281  42.9973 133.2749 0001036 294.8095  65.2649 15.27610975 59124","category":"Starlink"}]}